{"type": "FeatureCollection", "features": [{"type": "Feature", "geometry": {"type": "Point", "coordinates": [84.863, 27.819]}, "properties": {"name": "Shree Maha", "flood_prob": 0.003, "risk": "Low"}}, {"type": "Feature", "geometry": {"type": "Point", "coordinates": [84.858, 27.843]}, "properties": {"name": "Shree Mana", "flood_prob": 0.01, "risk": "Low"}}, {"type": "Feature", "geometry": {"type": "Point", "coordinates": [84.877, 27.816]}, "properties": {"name": "Shree Dand", "flood_prob": 0.0, "risk": "Low"}}, {"type": "Feature", "geometry": {"type": "Point", "coordinates": [84.88, 27.832]}, "properties": {"name": "Shree Chuw", "flood_prob": 0.01, "risk": "Low"}}, {"type": "Feature", "geometry": {"type": "Point", "coordinates": [84.923, 27.826]}, "properties": {"name": "Shree Bhum", "flood_prob": 0.003, "risk": "Low"}}, {"type": "Feature", "geometry": {"type": "Point", "coordinates": [84.923, 27.814]}, "properties": {"name": "Shree Kali", "flood_prob": 0.0, "risk": "Low"}}, {"type": "Feature", "geometry": {"type": "Point", "coordinates": [84.857, 27.82]}, "properties": {"name": "Shree Kali", "flood_prob": 0.0, "risk": "Low"}}, {"type": "Feature", "geometry": {"type": "Point", "coordinates": [84.906, 27.821]}, "properties": {"name": "Shree Jalp", "flood_prob": 0.003, "risk": "Low"}}, {"type": "Feature", "geometry": {"type": "Point", "coordinates": [84.902, 27.814]}, "properties": {"name": "Shree Kunn", "flood_prob": 0.003, "risk": "Low"}}, {"type": "Feature", "geometry": {"type": "Point", "coordinates": [84.935, 27.818]}, "properties": {"name": "Shree Sima", "flood_prob": 0.0, "risk": "Low"}}, {"type": "Feature", "geometry": {"type": "Point", "coordinates": [84.797, 27.863]}, "properties": {"name": "Shree Rewa", "flood_prob": 0.017, "risk": "Low"}}, {"type": "Feature", "geometry": {"type": "Point", "coordinates": [84.92, 27.84]}, "properties": {"name": "Shree Dhad", "flood_prob": 0.013, "risk": "Low"}}, {"type": "Feature", "geometry": {"type": "Point", "coordinates": [84.925, 27.829]}, "properties": {"name": "Shree Shiw", "flood_prob": 0.0, "risk": "Low"}}, {"type": "Feature", "geometry": {"type": "Point", "coordinates": [84.798, 27.858]}, "properties": {"name": "Shree Maha", "flood_prob": 0.017, "risk": "Low"}}, {"type": "Feature", "geometry": {"type": "Point", "coordinates": [84.825, 27.833]}, "properties": {"name": "Shree Kali", "flood_prob": 0.033, "risk": "Low"}}, {"type": "Feature", "geometry": {"type": "Point", "coordinates": [84.841, 27.869]}, "properties": {"name": "Shree Nala", "flood_prob": 0.013, "risk": "Low"}}, {"type": "Feature", "geometry": {"type": "Point", "coordinates": [84.814, 27.835]}, "properties": {"name": "Shree Mali", "flood_prob": 0.03, "risk": "Low"}}, {"type": "Feature", "geometry": {"type": "Point", "coordinates": [84.902, 27.799]}, "properties": {"name": "Shree Sars", "flood_prob": 0.007, "risk": "Low"}}, {"type": "Feature", "geometry": {"type": "Point", "coordinates": [84.884, 27.801]}, "properties": {"name": "Shree Jiba", "flood_prob": 0.007, "risk": "Low"}}, {"type": "Feature", "geometry": {"type": "Point", "coordinates": [84.938, 27.811]}, "properties": {"name": "Shri Satya", "flood_prob": 0.0, "risk": "Low"}}, {"type": "Feature", "geometry": {"type": "Point", "coordinates": [84.902, 27.799]}, "properties": {"name": "Shri Saras", "flood_prob": 0.007, "risk": "Low"}}, {"type": "Feature", "geometry": {"type": "Point", "coordinates": [84.884, 27.801]}, "properties": {"name": "Shri Jiban", "flood_prob": 0.007, "risk": "Low"}}, {"type": "Feature", "geometry": {"type": "Point", "coordinates": [84.877, 27.805]}, "properties": {"name": "Munal Acad", "flood_prob": 0.01, "risk": "Low"}}, {"type": "Feature", "geometry": {"type": "Point", "coordinates": [84.877, 27.807]}, "properties": {"name": "Shri Aadar", "flood_prob": 0.357, "risk": "Medium"}}, {"type": "Feature", "geometry": {"type": "Point", "coordinates": [84.879, 27.808]}, "properties": {"name": "Shri Adars", "flood_prob": 0.23, "risk": "Low"}}, {"type": "Feature", "geometry": {"type": "Point", "coordinates": [84.838, 27.812]}, "properties": {"name": "Shri Golma", "flood_prob": 0.013, "risk": "Low"}}, {"type": "Feature", "geometry": {"type": "Point", "coordinates": [84.799, 27.81]}, "properties": {"name": "Shri Orban", "flood_prob": 0.017, "risk": "Low"}}, {"type": "Feature", "geometry": {"type": "Point", "coordinates": [84.782, 27.812]}, "properties": {"name": "Shri Chand", "flood_prob": 0.167, "risk": "Low"}}, {"type": "Feature", "geometry": {"type": "Point", "coordinates": [84.836, 27.807]}, "properties": {"name": "Shree Bhad", "flood_prob": 0.647, "risk": "Medium"}}, {"type": "Feature", "geometry": {"type": "Point", "coordinates": [84.873, 27.8]}, "properties": {"name": "Dhading Po", "flood_prob": 0.02, "risk": "Low"}}, {"type": "Feature", "geometry": {"type": "Point", "coordinates": [84.782, 27.811]}, "properties": {"name": "Beni Siksh", "flood_prob": 0.037, "risk": "Low"}}, {"type": "Feature", "geometry": {"type": "Point", "coordinates": [84.55, 27.904]}, "properties": {"name": "Shree Jana", "flood_prob": 0.0, "risk": "Low"}}, {"type": "Feature", "geometry": {"type": "Point", "coordinates": [84.558, 27.881]}, "properties": {"name": "Shree Gang", "flood_prob": 0.0, "risk": "Low"}}, {"type": "Feature", "geometry": {"type": "Point", "coordinates": [84.554, 27.862]}, "properties": {"name": "Shri Karan", "flood_prob": 0.0, "risk": "Low"}}, {"type": "Feature", "geometry": {"type": "Point", "coordinates": [85.36, 28.142]}, "properties": {"name": "Shree Nepa", "flood_prob": 0.0, "risk": "Low"}}, {"type": "Feature", "geometry": {"type": "Point", "coordinates": [85.295, 28.113]}, "properties": {"name": "Shree Rasu", "flood_prob": 0.007, "risk": "Low"}}, {"type": "Feature", "geometry": {"type": "Point", "coordinates": [85.314, 28.169]}, "properties": {"name": "3-9c(s) an", "flood_prob": 0.0, "risk": "Low"}}, {"type": "Feature", "geometry": {"type": "Point", "coordinates": [85.3, 28.111]}, "properties": {"name": "Highland H", "flood_prob": 0.007, "risk": "Low"}}, {"type": "Feature", "geometry": {"type": "Point", "coordinates": [85.313, 28.168]}, "properties": {"name": "Parwatikun", "flood_prob": 0.0, "risk": "Low"}}, {"type": "Feature", "geometry": {"type": "Point", "coordinates": [85.352, 28.229]}, "properties": {"name": "Shree Arun", "flood_prob": 0.0, "risk": "Low"}}, {"type": "Feature", "geometry": {"type": "Point", "coordinates": [85.332, 28.162]}, "properties": {"name": "Shree komi", "flood_prob": 0.0, "risk": "Low"}}, {"type": "Feature", "geometry": {"type": "Point", "coordinates": [85.345, 28.197]}, "properties": {"name": "Shree Nepa", "flood_prob": 0.0, "risk": "Low"}}, {"type": "Feature", "geometry": {"type": "Point", "coordinates": [85.279, 28.115]}, "properties": {"name": "Shree Haku", "flood_prob": 0.01, "risk": "Low"}}, {"type": "Feature", "geometry": {"type": "Point", "coordinates": [85.339, 28.164]}, "properties": {"name": "Gosaikunda", "flood_prob": 0.4, "risk": "Medium"}}, {"type": "Feature", "geometry": {"type": "Point", "coordinates": [85.21, 28.001]}, "properties": {"name": "Shree Sila", "flood_prob": 0.043, "risk": "Low"}}, {"type": "Feature", "geometry": {"type": "Point", "coordinates": [85.2, 28.009]}, "properties": {"name": "Shree Bhub", "flood_prob": 0.013, "risk": "Low"}}, {"type": "Feature", "geometry": {"type": "Point", "coordinates": [85.223, 27.987]}, "properties": {"name": "Shree Deur", "flood_prob": 0.043, "risk": "Low"}}, {"type": "Feature", "geometry": {"type": "Point", "coordinates": [85.238, 27.978]}, "properties": {"name": "Shree Sury", "flood_prob": 0.043, "risk": "Low"}}, {"type": "Feature", "geometry": {"type": "Point", "coordinates": [85.241, 27.986]}, "properties": {"name": "Shree Jwal", "flood_prob": 0.043, "risk": "Low"}}, {"type": "Feature", "geometry": {"type": "Point", "coordinates": [85.193, 27.985]}, "properties": {"name": "Shree Bhim", "flood_prob": 0.0, "risk": "Low"}}, {"type": "Feature", "geometry": {"type": "Point", "coordinates": [85.195, 27.988]}, "properties": {"name": "Shree Amar", "flood_prob": 0.0, "risk": "Low"}}, {"type": "Feature", "geometry": {"type": "Point", "coordinates": [85.198, 27.991]}, "properties": {"name": "Shree Mana", "flood_prob": 0.0, "risk": "Low"}}, {"type": "Feature", "geometry": {"type": "Point", "coordinates": [85.224, 27.994]}, "properties": {"name": "Shree Nilk", "flood_prob": 0.043, "risk": "Low"}}, {"type": "Feature", "geometry": {"type": "Point", "coordinates": [85.195, 28.012]}, "properties": {"name": "Shree Nava", "flood_prob": 0.0, "risk": "Low"}}, {"type": "Feature", "geometry": {"type": "Point", "coordinates": [85.2, 28.016]}, "properties": {"name": "Shree Dhun", "flood_prob": 0.013, "risk": "Low"}}, {"type": "Feature", "geometry": {"type": "Point", "coordinates": [85.195, 28.062]}, "properties": {"name": "Panchalink", "flood_prob": 0.08, "risk": "Low"}}, {"type": "Feature", "geometry": {"type": "Point", "coordinates": [85.2, 28.07]}, "properties": {"name": "Shree Gane", "flood_prob": 0.093, "risk": "Low"}}, {"type": "Feature", "geometry": {"type": "Point", "coordinates": [85.208, 28.056]}, "properties": {"name": "Shree Chip", "flood_prob": 0.56, "risk": "Medium"}}, {"type": "Feature", "geometry": {"type": "Point", "coordinates": [85.193, 27.985]}, "properties": {"name": "Shree Bhim", "flood_prob": 0.0, "risk": "Low"}}, {"type": "Feature", "geometry": {"type": "Point", "coordinates": [85.208, 28.073]}, "properties": {"name": "Shree Balu", "flood_prob": 0.56, "risk": "Medium"}}, {"type": "Feature", "geometry": {"type": "Point", "coordinates": [85.129, 28.005]}, "properties": {"name": "Shree Jyot", "flood_prob": 0.0, "risk": "Low"}}, {"type": "Feature", "geometry": {"type": "Point", "coordinates": [85.129, 28.018]}, "properties": {"name": "Shree Nuch", "flood_prob": 0.0, "risk": "Low"}}, {"type": "Feature", "geometry": {"type": "Point", "coordinates": [85.145, 28.085]}, "properties": {"name": "Shree Durg", "flood_prob": 0.08, "risk": "Low"}}, {"type": "Feature", "geometry": {"type": "Point", "coordinates": [85.142, 28.002]}, "properties": {"name": "Shree Panc", "flood_prob": 0.0, "risk": "Low"}}, {"type": "Feature", "geometry": {"type": "Point", "coordinates": [85.166, 28.003]}, "properties": {"name": "Phikuri Mu", "flood_prob": 0.0, "risk": "Low"}}, {"type": "Feature", "geometry": {"type": "Point", "coordinates": [85.166, 28.003]}, "properties": {"name": "Shree Gyan", "flood_prob": 0.0, "risk": "Low"}}, {"type": "Feature", "geometry": {"type": "Point", "coordinates": [85.191, 28.087]}, "properties": {"name": "Shree karu", "flood_prob": 0.063, "risk": "Low"}}, {"type": "Feature", "geometry": {"type": "Point", "coordinates": [85.175, 28.086]}, "properties": {"name": "Shree Bhum", "flood_prob": 0.063, "risk": "Low"}}, {"type": "Feature", "geometry": {"type": "Point", "coordinates": [85.209, 28.09]}, "properties": {"name": "Shree Tiru", "flood_prob": 0.09, "risk": "Low"}}, {"type": "Feature", "geometry": {"type": "Point", "coordinates": [85.191, 27.984]}, "properties": {"name": "Shree Siva", "flood_prob": 0.0, "risk": "Low"}}, {"type": "Feature", "geometry": {"type": "Point", "coordinates": [85.173, 28.026]}, "properties": {"name": "Shree Bhum", "flood_prob": 0.0, "risk": "Low"}}, {"type": "Feature", "geometry": {"type": "Point", "coordinates": [85.18, 28.028]}, "properties": {"name": "Shree Sara", "flood_prob": 0.0, "risk": "Low"}}, {"type": "Feature", "geometry": {"type": "Point", "coordinates": [85.186, 28.038]}, "properties": {"name": "Shree Dada", "flood_prob": 0.003, "risk": "Low"}}, {"type": "Feature", "geometry": {"type": "Point", "coordinates": [85.177, 27.976]}, "properties": {"name": "Shree Sund", "flood_prob": 0.0, "risk": "Low"}}, {"type": "Feature", "geometry": {"type": "Point", "coordinates": [85.191, 28.03]}, "properties": {"name": "Shree Siml", "flood_prob": 0.07, "risk": "Low"}}, {"type": "Feature", "geometry": {"type": "Point", "coordinates": [85.185, 28.038]}, "properties": {"name": "Shree Dand", "flood_prob": 0.003, "risk": "Low"}}, {"type": "Feature", "geometry": {"type": "Point", "coordinates": [85.191, 27.984]}, "properties": {"name": "Shree Siva", "flood_prob": 0.0, "risk": "Low"}}, {"type": "Feature", "geometry": {"type": "Point", "coordinates": [85.178, 28.018]}, "properties": {"name": "Shree Trib", "flood_prob": 0.0, "risk": "Low"}}, {"type": "Feature", "geometry": {"type": "Point", "coordinates": [85.188, 27.988]}, "properties": {"name": "Shree Bara", "flood_prob": 0.0, "risk": "Low"}}, {"type": "Feature", "geometry": {"type": "Point", "coordinates": [85.184, 27.979]}, "properties": {"name": "Shree Neel", "flood_prob": 0.033, "risk": "Low"}}, {"type": "Feature", "geometry": {"type": "Point", "coordinates": [85.189, 28.047]}, "properties": {"name": "Shree Dipe", "flood_prob": 0.007, "risk": "Low"}}, {"type": "Feature", "geometry": {"type": "Point", "coordinates": [85.189, 28.009]}, "properties": {"name": "Shree Mali", "flood_prob": 0.0, "risk": "Low"}}, {"type": "Feature", "geometry": {"type": "Point", "coordinates": [85.222, 28.088]}, "properties": {"name": "Shree kali", "flood_prob": 0.09, "risk": "Low"}}, {"type": "Feature", "geometry": {"type": "Point", "coordinates": [85.174, 27.988]}, "properties": {"name": "Shree Kark", "flood_prob": 0.0, "risk": "Low"}}, {"type": "Feature", "geometry": {"type": "Point", "coordinates": [84.84, 27.787]}, "properties": {"name": "Shree Janj", "flood_prob": 0.05, "risk": "Low"}}, {"type": "Feature", "geometry": {"type": "Point", "coordinates": [84.831, 27.774]}, "properties": {"name": "Shree Jana", "flood_prob": 0.083, "risk": "Low"}}, {"type": "Feature", "geometry": {"type": "Point", "coordinates": [84.859, 27.762]}, "properties": {"name": "Shree Mahe", "flood_prob": 0.013, "risk": "Low"}}, {"type": "Feature", "geometry": {"type": "Point", "coordinates": [84.876, 27.797]}, "properties": {"name": "Shree Sund", "flood_prob": 0.007, "risk": "Low"}}, {"type": "Feature", "geometry": {"type": "Point", "coordinates": [84.855, 27.732]}, "properties": {"name": "Shree Bata", "flood_prob": 0.05, "risk": "Low"}}, {"type": "Feature", "geometry": {"type": "Point", "coordinates": [84.865, 27.768]}, "properties": {"name": "Shree Keur", "flood_prob": 0.01, "risk": "Low"}}, {"type": "Feature", "geometry": {"type": "Point", "coordinates": [84.705, 27.77]}, "properties": {"name": "Bal kantha", "flood_prob": 0.017, "risk": "Low"}}, {"type": "Feature", "geometry": {"type": "Point", "coordinates": [84.693, 27.752]}, "properties": {"name": "Robang Adh", "flood_prob": 0.017, "risk": "Low"}}, {"type": "Feature", "geometry": {"type": "Point", "coordinates": [84.701, 27.8]}, "properties": {"name": "Shree Jana", "flood_prob": 0.017, "risk": "Low"}}, {"type": "Feature", "geometry": {"type": "Point", "coordinates": [84.719, 27.795]}, "properties": {"name": "Mahakali B", "flood_prob": 0.017, "risk": "Low"}}, {"type": "Feature", "geometry": {"type": "Point", "coordinates": [84.711, 27.791]}, "properties": {"name": "Pipaldanda", "flood_prob": 0.017, "risk": "Low"}}, {"type": "Feature", "geometry": {"type": "Point", "coordinates": [84.703, 27.774]}, "properties": {"name": "Bitesh Bas", "flood_prob": 0.017, "risk": "Low"}}, {"type": "Feature", "geometry": {"type": "Point", "coordinates": [84.759, 27.778]}, "properties": {"name": "Bhangeri B", "flood_prob": 0.083, "risk": "Low"}}, {"type": "Feature", "geometry": {"type": "Point", "coordinates": [84.746, 27.779]}, "properties": {"name": "Aadarsh Ba", "flood_prob": 0.083, "risk": "Low"}}, {"type": "Feature", "geometry": {"type": "Point", "coordinates": [84.684, 27.805]}, "properties": {"name": "Chitrakala", "flood_prob": 0.023, "risk": "Low"}}, {"type": "Feature", "geometry": {"type": "Point", "coordinates": [84.679, 27.795]}, "properties": {"name": "Jogimara B", "flood_prob": 0.013, "risk": "Low"}}, {"type": "Feature", "geometry": {"type": "Point", "coordinates": [84.671, 27.805]}, "properties": {"name": "Rastriya S", "flood_prob": 0.02, "risk": "Low"}}, {"type": "Feature", "geometry": {"type": "Point", "coordinates": [84.682, 27.804]}, "properties": {"name": "Goirang Ba", "flood_prob": 0.037, "risk": "Low"}}, {"type": "Feature", "geometry": {"type": "Point", "coordinates": [84.658, 27.801]}, "properties": {"name": "Shree Jalk", "flood_prob": 0.01, "risk": "Low"}}, {"type": "Feature", "geometry": {"type": "Point", "coordinates": [84.655, 27.814]}, "properties": {"name": "Rastriya B", "flood_prob": 0.0, "risk": "Low"}}, {"type": "Feature", "geometry": {"type": "Point", "coordinates": [84.68, 27.773]}, "properties": {"name": "Shree Kosr", "flood_prob": 0.013, "risk": "Low"}}, {"type": "Feature", "geometry": {"type": "Point", "coordinates": [84.656, 27.796]}, "properties": {"name": "Padamchour", "flood_prob": 0.01, "risk": "Low"}}, {"type": "Feature", "geometry": {"type": "Point", "coordinates": [84.684, 27.79]}, "properties": {"name": "Malika Bas", "flood_prob": 0.013, "risk": "Low"}}, {"type": "Feature", "geometry": {"type": "Point", "coordinates": [84.713, 27.772]}, "properties": {"name": "Suryadaya ", "flood_prob": 0.017, "risk": "Low"}}, {"type": "Feature", "geometry": {"type": "Point", "coordinates": [84.718, 27.751]}, "properties": {"name": "Gothibanjh", "flood_prob": 0.02, "risk": "Low"}}, {"type": "Feature", "geometry": {"type": "Point", "coordinates": [84.727, 27.766]}, "properties": {"name": "Kalika Sec", "flood_prob": 0.027, "risk": "Low"}}, {"type": "Feature", "geometry": {"type": "Point", "coordinates": [84.732, 27.762]}, "properties": {"name": "Janaprabha", "flood_prob": 0.027, "risk": "Low"}}, {"type": "Feature", "geometry": {"type": "Point", "coordinates": [84.771, 27.763]}, "properties": {"name": "Shree Panc", "flood_prob": 0.077, "risk": "Low"}}, {"type": "Feature", "geometry": {"type": "Point", "coordinates": [84.774, 27.757]}, "properties": {"name": "Siddhakali", "flood_prob": 0.06, "risk": "Low"}}, {"type": "Feature", "geometry": {"type": "Point", "coordinates": [84.777, 27.774]}, "properties": {"name": "Dhusa Basi", "flood_prob": 0.06, "risk": "Low"}}, {"type": "Feature", "geometry": {"type": "Point", "coordinates": [84.699, 27.741]}, "properties": {"name": "Jaladevi B", "flood_prob": 0.017, "risk": "Low"}}, {"type": "Feature", "geometry": {"type": "Point", "coordinates": [84.742, 27.746]}, "properties": {"name": "Nawaprativ", "flood_prob": 0.067, "risk": "Low"}}, {"type": "Feature", "geometry": {"type": "Point", "coordinates": [84.809, 27.78]}, "properties": {"name": "Harkapur S", "flood_prob": 0.073, "risk": "Low"}}, {"type": "Feature", "geometry": {"type": "Point", "coordinates": [84.805, 27.766]}, "properties": {"name": "Richok Ira", "flood_prob": 0.07, "risk": "Low"}}, {"type": "Feature", "geometry": {"type": "Point", "coordinates": [84.818, 27.756]}, "properties": {"name": "JanaJagrit", "flood_prob": 0.083, "risk": "Low"}}, {"type": "Feature", "geometry": {"type": "Point", "coordinates": [84.795, 27.783]}, "properties": {"name": "Kalika Bas", "flood_prob": 0.06, "risk": "Low"}}, {"type": "Feature", "geometry": {"type": "Point", "coordinates": [84.824, 27.757]}, "properties": {"name": "Shree Rawa", "flood_prob": 0.083, "risk": "Low"}}, {"type": "Feature", "geometry": {"type": "Point", "coordinates": [84.818, 27.748]}, "properties": {"name": "Shree Gaur", "flood_prob": 0.083, "risk": "Low"}}, {"type": "Feature", "geometry": {"type": "Point", "coordinates": [84.811, 27.743]}, "properties": {"name": "Talti Boar", "flood_prob": 0.087, "risk": "Low"}}, {"type": "Feature", "geometry": {"type": "Point", "coordinates": [84.836, 27.717]}, "properties": {"name": "Shree Chan", "flood_prob": 0.083, "risk": "Low"}}, {"type": "Feature", "geometry": {"type": "Point", "coordinates": [84.883, 27.703]}, "properties": {"name": "Baskharka ", "flood_prob": 0.007, "risk": "Low"}}, {"type": "Feature", "geometry": {"type": "Point", "coordinates": [84.755, 27.743]}, "properties": {"name": "Bomrang Ba", "flood_prob": 0.067, "risk": "Low"}}, {"type": "Feature", "geometry": {"type": "Point", "coordinates": [84.854, 27.707]}, "properties": {"name": "Mahadevsth", "flood_prob": 0.05, "risk": "Low"}}, {"type": "Feature", "geometry": {"type": "Point", "coordinates": [84.875, 27.686]}, "properties": {"name": "Shree Jaru", "flood_prob": 0.007, "risk": "Low"}}, {"type": "Feature", "geometry": {"type": "Point", "coordinates": [84.875, 27.696]}, "properties": {"name": "Shree Simt", "flood_prob": 0.007, "risk": "Low"}}, {"type": "Feature", "geometry": {"type": "Point", "coordinates": [84.868, 27.718]}, "properties": {"name": "Shree kunc", "flood_prob": 0.01, "risk": "Low"}}, {"type": "Feature", "geometry": {"type": "Point", "coordinates": [84.882, 27.671]}, "properties": {"name": "Shree Sing", "flood_prob": 0.007, "risk": "Low"}}, {"type": "Feature", "geometry": {"type": "Point", "coordinates": [84.811, 27.73]}, "properties": {"name": "Shree Pipa", "flood_prob": 0.087, "risk": "Low"}}, {"type": "Feature", "geometry": {"type": "Point", "coordinates": [84.813, 27.723]}, "properties": {"name": "Shree Praj", "flood_prob": 0.087, "risk": "Low"}}, {"type": "Feature", "geometry": {"type": "Point", "coordinates": [84.718, 27.798]}, "properties": {"name": "Shri Panch", "flood_prob": 0.027, "risk": "Low"}}, {"type": "Feature", "geometry": {"type": "Point", "coordinates": [84.701, 27.8]}, "properties": {"name": "Shri Janaj", "flood_prob": 0.017, "risk": "Low"}}, {"type": "Feature", "geometry": {"type": "Point", "coordinates": [84.749, 27.804]}, "properties": {"name": "Shri Buddh", "flood_prob": 0.597, "risk": "Medium"}}, {"type": "Feature", "geometry": {"type": "Point", "coordinates": [84.7, 27.812]}, "properties": {"name": "Shri Praja", "flood_prob": 0.003, "risk": "Low"}}, {"type": "Feature", "geometry": {"type": "Point", "coordinates": [84.705, 27.806]}, "properties": {"name": "Shree Sank", "flood_prob": 0.34, "risk": "Medium"}}, {"type": "Feature", "geometry": {"type": "Point", "coordinates": [84.739, 27.802]}, "properties": {"name": "Rising Sta", "flood_prob": 0.52, "risk": "Medium"}}, {"type": "Feature", "geometry": {"type": "Point", "coordinates": [84.747, 27.796]}, "properties": {"name": "Jhagare Da", "flood_prob": 0.083, "risk": "Low"}}, {"type": "Feature", "geometry": {"type": "Point", "coordinates": [84.938, 27.707]}, "properties": {"name": "Shree Bage", "flood_prob": 0.007, "risk": "Low"}}, {"type": "Feature", "geometry": {"type": "Point", "coordinates": [84.932, 27.761]}, "properties": {"name": "Shree Gane", "flood_prob": 0.007, "risk": "Low"}}, {"type": "Feature", "geometry": {"type": "Point", "coordinates": [84.924, 27.772]}, "properties": {"name": "Shree Panc", "flood_prob": 0.007, "risk": "Low"}}, {"type": "Feature", "geometry": {"type": "Point", "coordinates": [84.963, 27.714]}, "properties": {"name": "Shree Sapt", "flood_prob": 0.007, "risk": "Low"}}, {"type": "Feature", "geometry": {"type": "Point", "coordinates": [84.941, 27.7]}, "properties": {"name": "Shree Thum", "flood_prob": 0.007, "risk": "Low"}}, {"type": "Feature", "geometry": {"type": "Point", "coordinates": [84.919, 27.788]}, "properties": {"name": "Shree Bhan", "flood_prob": 0.007, "risk": "Low"}}, {"type": "Feature", "geometry": {"type": "Point", "coordinates": [84.972, 27.79]}, "properties": {"name": "Shree Amal", "flood_prob": 0.007, "risk": "Low"}}, {"type": "Feature", "geometry": {"type": "Point", "coordinates": [84.907, 27.788]}, "properties": {"name": "Shree Bagh", "flood_prob": 0.007, "risk": "Low"}}, {"type": "Feature", "geometry": {"type": "Point", "coordinates": [84.977, 27.762]}, "properties": {"name": "Shree Jala", "flood_prob": 0.007, "risk": "Low"}}, {"type": "Feature", "geometry": {"type": "Point", "coordinates": [84.936, 27.783]}, "properties": {"name": "Shree Bhai", "flood_prob": 0.007, "risk": "Low"}}, {"type": "Feature", "geometry": {"type": "Point", "coordinates": [84.947, 27.765]}, "properties": {"name": "Shree Than", "flood_prob": 0.007, "risk": "Low"}}, {"type": "Feature", "geometry": {"type": "Point", "coordinates": [84.938, 27.743]}, "properties": {"name": "Shree Rith", "flood_prob": 0.007, "risk": "Low"}}, {"type": "Feature", "geometry": {"type": "Point", "coordinates": [84.927, 27.746]}, "properties": {"name": "Shree Rakt", "flood_prob": 0.007, "risk": "Low"}}, {"type": "Feature", "geometry": {"type": "Point", "coordinates": [84.948, 27.755]}, "properties": {"name": "Shree Sita", "flood_prob": 0.007, "risk": "Low"}}, {"type": "Feature", "geometry": {"type": "Point", "coordinates": [84.946, 27.735]}, "properties": {"name": "Shree Ritt", "flood_prob": 0.007, "risk": "Low"}}, {"type": "Feature", "geometry": {"type": "Point", "coordinates": [84.955, 27.787]}, "properties": {"name": "Shree Bage", "flood_prob": 0.007, "risk": "Low"}}, {"type": "Feature", "geometry": {"type": "Point", "coordinates": [84.956, 27.762]}, "properties": {"name": "Shree kira", "flood_prob": 0.007, "risk": "Low"}}, {"type": "Feature", "geometry": {"type": "Point", "coordinates": [84.909, 27.78]}, "properties": {"name": "Shree Maha", "flood_prob": 0.007, "risk": "Low"}}, {"type": "Feature", "geometry": {"type": "Point", "coordinates": [84.912, 27.746]}, "properties": {"name": "Shree Puku", "flood_prob": 0.007, "risk": "Low"}}, {"type": "Feature", "geometry": {"type": "Point", "coordinates": [84.926, 27.76]}, "properties": {"name": "Shree Kira", "flood_prob": 0.007, "risk": "Low"}}, {"type": "Feature", "geometry": {"type": "Point", "coordinates": [84.944, 27.805]}, "properties": {"name": "Shri Indra", "flood_prob": 0.017, "risk": "Low"}}, {"type": "Feature", "geometry": {"type": "Point", "coordinates": [84.944, 27.815]}, "properties": {"name": "Shri Belin", "flood_prob": 0.003, "risk": "Low"}}, {"type": "Feature", "geometry": {"type": "Point", "coordinates": [84.967, 27.813]}, "properties": {"name": "Shree Rakt", "flood_prob": 0.207, "risk": "Low"}}, {"type": "Feature", "geometry": {"type": "Point", "coordinates": [85.019, 27.802]}, "properties": {"name": "Shree Jwal", "flood_prob": 0.067, "risk": "Low"}}, {"type": "Feature", "geometry": {"type": "Point", "coordinates": [85.052, 27.785]}, "properties": {"name": "Shree Goga", "flood_prob": 0.05, "risk": "Low"}}, {"type": "Feature", "geometry": {"type": "Point", "coordinates": [85.078, 27.781]}, "properties": {"name": "Shree Asar", "flood_prob": 0.05, "risk": "Low"}}, {"type": "Feature", "geometry": {"type": "Point", "coordinates": [85.083, 27.768]}, "properties": {"name": "Shree Goga", "flood_prob": 0.05, "risk": "Low"}}, {"type": "Feature", "geometry": {"type": "Point", "coordinates": [85.005, 27.829]}, "properties": {"name": "Shree Bhai", "flood_prob": 0.07, "risk": "Low"}}, {"type": "Feature", "geometry": {"type": "Point", "coordinates": [84.952, 27.838]}, "properties": {"name": "Shree kall", "flood_prob": 0.01, "risk": "Low"}}, {"type": "Feature", "geometry": {"type": "Point", "coordinates": [84.959, 27.827]}, "properties": {"name": "Shree Tink", "flood_prob": 0.0, "risk": "Low"}}, {"type": "Feature", "geometry": {"type": "Point", "coordinates": [84.998, 27.821]}, "properties": {"name": "Shree Sara", "flood_prob": 0.07, "risk": "Low"}}, {"type": "Feature", "geometry": {"type": "Point", "coordinates": [84.947, 27.829]}, "properties": {"name": "Shree Bhak", "flood_prob": 0.0, "risk": "Low"}}, {"type": "Feature", "geometry": {"type": "Point", "coordinates": [84.995, 27.831]}, "properties": {"name": "Shree Jalp", "flood_prob": 0.073, "risk": "Low"}}, {"type": "Feature", "geometry": {"type": "Point", "coordinates": [85.011, 27.764]}, "properties": {"name": "Shree Band", "flood_prob": 0.063, "risk": "Low"}}, {"type": "Feature", "geometry": {"type": "Point", "coordinates": [85.006, 27.787]}, "properties": {"name": "Shree Balk", "flood_prob": 0.063, "risk": "Low"}}, {"type": "Feature", "geometry": {"type": "Point", "coordinates": [85.033, 27.818]}, "properties": {"name": "Shree Jwal", "flood_prob": 0.07, "risk": "Low"}}, {"type": "Feature", "geometry": {"type": "Point", "coordinates": [85.08, 27.831]}, "properties": {"name": "Shree Mali", "flood_prob": 0.047, "risk": "Low"}}, {"type": "Feature", "geometry": {"type": "Point", "coordinates": [85.074, 27.797]}, "properties": {"name": "Shree Band", "flood_prob": 0.05, "risk": "Low"}}, {"type": "Feature", "geometry": {"type": "Point", "coordinates": [85.069, 27.811]}, "properties": {"name": "Shree Gaul", "flood_prob": 0.043, "risk": "Low"}}, {"type": "Feature", "geometry": {"type": "Point", "coordinates": [85.08, 27.837]}, "properties": {"name": "Shree Utpa", "flood_prob": 0.05, "risk": "Low"}}, {"type": "Feature", "geometry": {"type": "Point", "coordinates": [85.094, 27.814]}, "properties": {"name": "Shree Panc", "flood_prob": 0.043, "risk": "Low"}}, {"type": "Feature", "geometry": {"type": "Point", "coordinates": [85.074, 27.826]}, "properties": {"name": "Shree Nepa", "flood_prob": 0.043, "risk": "Low"}}, {"type": "Feature", "geometry": {"type": "Point", "coordinates": [85.039, 27.843]}, "properties": {"name": "Shree Bhai", "flood_prob": 0.067, "risk": "Low"}}, {"type": "Feature", "geometry": {"type": "Point", "coordinates": [85.032, 27.83]}, "properties": {"name": "Shree Gane", "flood_prob": 0.07, "risk": "Low"}}, {"type": "Feature", "geometry": {"type": "Point", "coordinates": [85.046, 27.829]}, "properties": {"name": "Shree Indr", "flood_prob": 0.053, "risk": "Low"}}, {"type": "Feature", "geometry": {"type": "Point", "coordinates": [85.055, 27.842]}, "properties": {"name": "Shree Gane", "flood_prob": 0.05, "risk": "Low"}}, {"type": "Feature", "geometry": {"type": "Point", "coordinates": [85.076, 27.847]}, "properties": {"name": "Shree Sara", "flood_prob": 0.053, "risk": "Low"}}, {"type": "Feature", "geometry": {"type": "Point", "coordinates": [85.064, 27.843]}, "properties": {"name": "Shree Jana", "flood_prob": 0.05, "risk": "Low"}}, {"type": "Feature", "geometry": {"type": "Point", "coordinates": [85.042, 27.851]}, "properties": {"name": "Shri Sila ", "flood_prob": 0.01, "risk": "Low"}}, {"type": "Feature", "geometry": {"type": "Point", "coordinates": [85.028, 27.849]}, "properties": {"name": "Shri Ganes", "flood_prob": 0.523, "risk": "Medium"}}, {"type": "Feature", "geometry": {"type": "Point", "coordinates": [85.019, 27.839]}, "properties": {"name": "Shree Pima", "flood_prob": 0.347, "risk": "Medium"}}, {"type": "Feature", "geometry": {"type": "Point", "coordinates": [85.014, 27.811]}, "properties": {"name": "Shree Maha", "flood_prob": 0.313, "risk": "Low"}}, {"type": "Feature", "geometry": {"type": "Point", "coordinates": [85.183, 27.838]}, "properties": {"name": "Shree Panc", "flood_prob": 0.05, "risk": "Low"}}, {"type": "Feature", "geometry": {"type": "Point", "coordinates": [85.2, 27.883]}, "properties": {"name": "Shree Sury", "flood_prob": 0.013, "risk": "Low"}}, {"type": "Feature", "geometry": {"type": "Point", "coordinates": [85.187, 27.867]}, "properties": {"name": "Shree Sapt", "flood_prob": 0.0, "risk": "Low"}}, {"type": "Feature", "geometry": {"type": "Point", "coordinates": [85.022, 27.877]}, "properties": {"name": "Shree Sara", "flood_prob": 0.03, "risk": "Low"}}, {"type": "Feature", "geometry": {"type": "Point", "coordinates": [85.042, 27.87]}, "properties": {"name": "Shree Chan", "flood_prob": 0.007, "risk": "Low"}}, {"type": "Feature", "geometry": {"type": "Point", "coordinates": [85.129, 27.835]}, "properties": {"name": "Shree Shil", "flood_prob": 0.05, "risk": "Low"}}, {"type": "Feature", "geometry": {"type": "Point", "coordinates": [85.057, 27.871]}, "properties": {"name": "Shree Chak", "flood_prob": 0.0, "risk": "Low"}}, {"type": "Feature", "geometry": {"type": "Point", "coordinates": [85.049, 27.867]}, "properties": {"name": "Shree Anna", "flood_prob": 0.0, "risk": "Low"}}, {"type": "Feature", "geometry": {"type": "Point", "coordinates": [85.023, 27.886]}, "properties": {"name": "Shree Ralu", "flood_prob": 0.03, "risk": "Low"}}, {"type": "Feature", "geometry": {"type": "Point", "coordinates": [85.012, 27.866]}, "properties": {"name": "Taruka Shr", "flood_prob": 0.02, "risk": "Low"}}, {"type": "Feature", "geometry": {"type": "Point", "coordinates": [85.11, 27.813]}, "properties": {"name": "Shree Tila", "flood_prob": 0.043, "risk": "Low"}}, {"type": "Feature", "geometry": {"type": "Point", "coordinates": [85.109, 27.819]}, "properties": {"name": "Shree Leks", "flood_prob": 0.043, "risk": "Low"}}, {"type": "Feature", "geometry": {"type": "Point", "coordinates": [85.141, 27.84]}, "properties": {"name": "Shree Balk", "flood_prob": 0.05, "risk": "Low"}}, {"type": "Feature", "geometry": {"type": "Point", "coordinates": [85.12, 27.842]}, "properties": {"name": "Shree Jana", "flood_prob": 0.05, "risk": "Low"}}, {"type": "Feature", "geometry": {"type": "Point", "coordinates": [85.115, 27.832]}, "properties": {"name": "Shree Maha", "flood_prob": 0.05, "risk": "Low"}}, {"type": "Feature", "geometry": {"type": "Point", "coordinates": [85.098, 27.838]}, "properties": {"name": "Shree Jana", "flood_prob": 0.05, "risk": "Low"}}, {"type": "Feature", "geometry": {"type": "Point", "coordinates": [85.156, 27.777]}, "properties": {"name": "Kumari Nam", "flood_prob": 0.04, "risk": "Low"}}, {"type": "Feature", "geometry": {"type": "Point", "coordinates": [85.107, 27.849]}, "properties": {"name": "Shree Kaly", "flood_prob": 0.053, "risk": "Low"}}, {"type": "Feature", "geometry": {"type": "Point", "coordinates": [85.099, 27.849]}, "properties": {"name": "Shree Bage", "flood_prob": 0.053, "risk": "Low"}}, {"type": "Feature", "geometry": {"type": "Point", "coordinates": [85.132, 27.847]}, "properties": {"name": "Shree Maha", "flood_prob": 0.053, "risk": "Low"}}, {"type": "Feature", "geometry": {"type": "Point", "coordinates": [85.116, 27.824]}, "properties": {"name": "Shree Ujjw", "flood_prob": 0.043, "risk": "Low"}}, {"type": "Feature", "geometry": {"type": "Point", "coordinates": [85.079, 27.866]}, "properties": {"name": "Shree Vais", "flood_prob": 0.0, "risk": "Low"}}, {"type": "Feature", "geometry": {"type": "Point", "coordinates": [85.051, 27.884]}, "properties": {"name": "Shree Bhum", "flood_prob": 0.0, "risk": "Low"}}, {"type": "Feature", "geometry": {"type": "Point", "coordinates": [85.071, 27.881]}, "properties": {"name": "Shree Nawa", "flood_prob": 0.0, "risk": "Low"}}, {"type": "Feature", "geometry": {"type": "Point", "coordinates": [85.176, 27.813]}, "properties": {"name": "Shree Aruk", "flood_prob": 0.043, "risk": "Low"}}, {"type": "Feature", "geometry": {"type": "Point", "coordinates": [85.108, 27.884]}, "properties": {"name": "Shree Sund", "flood_prob": 0.0, "risk": "Low"}}, {"type": "Feature", "geometry": {"type": "Point", "coordinates": [85.157, 27.809]}, "properties": {"name": "Shree Belk", "flood_prob": 0.043, "risk": "Low"}}, {"type": "Feature", "geometry": {"type": "Point", "coordinates": [85.151, 27.822]}, "properties": {"name": "Shree Saha", "flood_prob": 0.043, "risk": "Low"}}, {"type": "Feature", "geometry": {"type": "Point", "coordinates": [85.101, 27.889]}, "properties": {"name": "Shree Bire", "flood_prob": 0.0, "risk": "Low"}}, {"type": "Feature", "geometry": {"type": "Point", "coordinates": [85.201, 27.838]}, "properties": {"name": "Shree Naw ", "flood_prob": 0.087, "risk": "Low"}}, {"type": "Feature", "geometry": {"type": "Point", "coordinates": [85.137, 27.776]}, "properties": {"name": "Shree Gane", "flood_prob": 0.04, "risk": "Low"}}, {"type": "Feature", "geometry": {"type": "Point", "coordinates": [85.148, 27.795]}, "properties": {"name": "Shree Chit", "flood_prob": 0.04, "risk": "Low"}}, {"type": "Feature", "geometry": {"type": "Point", "coordinates": [85.137, 27.785]}, "properties": {"name": "Shree Kris", "flood_prob": 0.04, "risk": "Low"}}, {"type": "Feature", "geometry": {"type": "Point", "coordinates": [85.156, 27.859]}, "properties": {"name": "Shree Sara", "flood_prob": 0.0, "risk": "Low"}}, {"type": "Feature", "geometry": {"type": "Point", "coordinates": [85.167, 27.871]}, "properties": {"name": "Shree Bhri", "flood_prob": 0.0, "risk": "Low"}}, {"type": "Feature", "geometry": {"type": "Point", "coordinates": [85.167, 27.834]}, "properties": {"name": "Shree Kali", "flood_prob": 0.05, "risk": "Low"}}, {"type": "Feature", "geometry": {"type": "Point", "coordinates": [85.09, 27.878]}, "properties": {"name": "Shree Chan", "flood_prob": 0.0, "risk": "Low"}}, {"type": "Feature", "geometry": {"type": "Point", "coordinates": [85.104, 27.872]}, "properties": {"name": "Shree Jala", "flood_prob": 0.0, "risk": "Low"}}, {"type": "Feature", "geometry": {"type": "Point", "coordinates": [85.121, 27.777]}, "properties": {"name": "Shree Nawa", "flood_prob": 0.04, "risk": "Low"}}, {"type": "Feature", "geometry": {"type": "Point", "coordinates": [85.127, 27.784]}, "properties": {"name": "Shree Laxm", "flood_prob": 0.04, "risk": "Low"}}, {"type": "Feature", "geometry": {"type": "Point", "coordinates": [85.171, 27.788]}, "properties": {"name": "Shree Khan", "flood_prob": 0.04, "risk": "Low"}}, {"type": "Feature", "geometry": {"type": "Point", "coordinates": [85.101, 27.794]}, "properties": {"name": "Shree Bika", "flood_prob": 0.04, "risk": "Low"}}, {"type": "Feature", "geometry": {"type": "Point", "coordinates": [85.168, 27.778]}, "properties": {"name": "Shree Shra", "flood_prob": 0.04, "risk": "Low"}}, {"type": "Feature", "geometry": {"type": "Point", "coordinates": [85.131, 27.793]}, "properties": {"name": "Shree Pokh", "flood_prob": 0.04, "risk": "Low"}}, {"type": "Feature", "geometry": {"type": "Point", "coordinates": [85.09, 27.854]}, "properties": {"name": "Shri Janas", "flood_prob": 0.0, "risk": "Low"}}, {"type": "Feature", "geometry": {"type": "Point", "coordinates": [85.13, 27.886]}, "properties": {"name": "Shree Mand", "flood_prob": 0.09, "risk": "Low"}}, {"type": "Feature", "geometry": {"type": "Point", "coordinates": [85.081, 27.858]}, "properties": {"name": "Shri Chand", "flood_prob": 0.037, "risk": "Low"}}, {"type": "Feature", "geometry": {"type": "Point", "coordinates": [85.06, 27.852]}, "properties": {"name": "Mahadev Mu", "flood_prob": 0.0, "risk": "Low"}}, {"type": "Feature", "geometry": {"type": "Point", "coordinates": [85.087, 27.863]}, "properties": {"name": "Shri Seti ", "flood_prob": 0.0, "risk": "Low"}}, {"type": "Feature", "geometry": {"type": "Point", "coordinates": [85.132, 27.873]}, "properties": {"name": "Shree Rakt", "flood_prob": 0.0, "risk": "Low"}}, {"type": "Feature", "geometry": {"type": "Point", "coordinates": [85.137, 27.886]}, "properties": {"name": "Shree Maha", "flood_prob": 0.0, "risk": "Low"}}, {"type": "Feature", "geometry": {"type": "Point", "coordinates": [85.142, 27.951]}, "properties": {"name": "Shree Bhag", "flood_prob": 0.0, "risk": "Low"}}, {"type": "Feature", "geometry": {"type": "Point", "coordinates": [85.196, 27.953]}, "properties": {"name": "Seti Devi ", "flood_prob": 0.0, "risk": "Low"}}, {"type": "Feature", "geometry": {"type": "Point", "coordinates": [85.13, 27.933]}, "properties": {"name": "Shree Shan", "flood_prob": 0.0, "risk": "Low"}}, {"type": "Feature", "geometry": {"type": "Point", "coordinates": [85.167, 27.899]}, "properties": {"name": "Shree Anna", "flood_prob": 0.0, "risk": "Low"}}, {"type": "Feature", "geometry": {"type": "Point", "coordinates": [85.221, 27.971]}, "properties": {"name": "Shree Sing", "flood_prob": 0.043, "risk": "Low"}}, {"type": "Feature", "geometry": {"type": "Point", "coordinates": [85.181, 27.951]}, "properties": {"name": "Shree Kali", "flood_prob": 0.0, "risk": "Low"}}, {"type": "Feature", "geometry": {"type": "Point", "coordinates": [85.115, 27.917]}, "properties": {"name": "Shree Tind", "flood_prob": 0.0, "risk": "Low"}}, {"type": "Feature", "geometry": {"type": "Point", "coordinates": [85.125, 27.919]}, "properties": {"name": "Shree Naya", "flood_prob": 0.0, "risk": "Low"}}, {"type": "Feature", "geometry": {"type": "Point", "coordinates": [85.11, 27.913]}, "properties": {"name": "Shree Bage", "flood_prob": 0.0, "risk": "Low"}}, {"type": "Feature", "geometry": {"type": "Point", "coordinates": [85.097, 27.913]}, "properties": {"name": "Shree Bhum", "flood_prob": 0.0, "risk": "Low"}}, {"type": "Feature", "geometry": {"type": "Point", "coordinates": [85.119, 27.911]}, "properties": {"name": "Shree Sans", "flood_prob": 0.0, "risk": "Low"}}, {"type": "Feature", "geometry": {"type": "Point", "coordinates": [85.085, 27.9]}, "properties": {"name": "Shree Bage", "flood_prob": 0.0, "risk": "Low"}}, {"type": "Feature", "geometry": {"type": "Point", "coordinates": [85.099, 27.907]}, "properties": {"name": "Shree Daks", "flood_prob": 0.0, "risk": "Low"}}, {"type": "Feature", "geometry": {"type": "Point", "coordinates": [85.081, 27.892]}, "properties": {"name": "Shree Bham", "flood_prob": 0.0, "risk": "Low"}}, {"type": "Feature", "geometry": {"type": "Point", "coordinates": [85.074, 27.917]}, "properties": {"name": "Shree Bagh", "flood_prob": 0.0, "risk": "Low"}}, {"type": "Feature", "geometry": {"type": "Point", "coordinates": [85.114, 27.897]}, "properties": {"name": "Shree Mula", "flood_prob": 0.0, "risk": "Low"}}, {"type": "Feature", "geometry": {"type": "Point", "coordinates": [85.088, 27.933]}, "properties": {"name": "Shree Bage", "flood_prob": 0.0, "risk": "Low"}}, {"type": "Feature", "geometry": {"type": "Point", "coordinates": [85.065, 27.894]}, "properties": {"name": "Shree Nila", "flood_prob": 0.0, "risk": "Low"}}, {"type": "Feature", "geometry": {"type": "Point", "coordinates": [85.097, 27.933]}, "properties": {"name": "Shree Prag", "flood_prob": 0.0, "risk": "Low"}}, {"type": "Feature", "geometry": {"type": "Point", "coordinates": [85.086, 27.948]}, "properties": {"name": "Shree Sund", "flood_prob": 0.0, "risk": "Low"}}, {"type": "Feature", "geometry": {"type": "Point", "coordinates": [85.106, 27.943]}, "properties": {"name": "Shree Kaly", "flood_prob": 0.0, "risk": "Low"}}, {"type": "Feature", "geometry": {"type": "Point", "coordinates": [85.135, 27.941]}, "properties": {"name": "Shree Pari", "flood_prob": 0.0, "risk": "Low"}}, {"type": "Feature", "geometry": {"type": "Point", "coordinates": [85.15, 27.945]}, "properties": {"name": "Shree Tris", "flood_prob": 0.0, "risk": "Low"}}, {"type": "Feature", "geometry": {"type": "Point", "coordinates": [85.092, 27.896]}, "properties": {"name": "Shree Bag ", "flood_prob": 0.0, "risk": "Low"}}, {"type": "Feature", "geometry": {"type": "Point", "coordinates": [85.11, 27.93]}, "properties": {"name": "Shree Srij", "flood_prob": 0.0, "risk": "Low"}}, {"type": "Feature", "geometry": {"type": "Point", "coordinates": [85.118, 27.946]}, "properties": {"name": "Shree Kany", "flood_prob": 0.0, "risk": "Low"}}, {"type": "Feature", "geometry": {"type": "Point", "coordinates": [85.094, 27.943]}, "properties": {"name": "Shree Kali", "flood_prob": 0.0, "risk": "Low"}}, {"type": "Feature", "geometry": {"type": "Point", "coordinates": [85.096, 27.939]}, "properties": {"name": "Shree Srij", "flood_prob": 0.0, "risk": "Low"}}, {"type": "Feature", "geometry": {"type": "Point", "coordinates": [85.119, 27.935]}, "properties": {"name": "Shree Ajin", "flood_prob": 0.0, "risk": "Low"}}, {"type": "Feature", "geometry": {"type": "Point", "coordinates": [85.195, 27.949]}, "properties": {"name": "Shree Sidd", "flood_prob": 0.0, "risk": "Low"}}, {"type": "Feature", "geometry": {"type": "Point", "coordinates": [85.156, 27.966]}, "properties": {"name": "Shree Bach", "flood_prob": 0.0, "risk": "Low"}}, {"type": "Feature", "geometry": {"type": "Point", "coordinates": [85.213, 27.955]}, "properties": {"name": "Shree Shan", "flood_prob": 0.043, "risk": "Low"}}, {"type": "Feature", "geometry": {"type": "Point", "coordinates": [85.183, 27.937]}, "properties": {"name": "Shree Maha", "flood_prob": 0.0, "risk": "Low"}}, {"type": "Feature", "geometry": {"type": "Point", "coordinates": [85.168, 27.917]}, "properties": {"name": "Shree Bhai", "flood_prob": 0.0, "risk": "Low"}}, {"type": "Feature", "geometry": {"type": "Point", "coordinates": [85.146, 27.899]}, "properties": {"name": "Nuwakot Ad", "flood_prob": 0.0, "risk": "Low"}}, {"type": "Feature", "geometry": {"type": "Point", "coordinates": [85.169, 27.965]}, "properties": {"name": "Chandeshwo", "flood_prob": 0.0, "risk": "Low"}}, {"type": "Feature", "geometry": {"type": "Point", "coordinates": [85.142, 27.914]}, "properties": {"name": "Shr Prithi", "flood_prob": 0.0, "risk": "Low"}}, {"type": "Feature", "geometry": {"type": "Point", "coordinates": [85.142, 27.914]}, "properties": {"name": "Nari Cheta", "flood_prob": 0.0, "risk": "Low"}}, {"type": "Feature", "geometry": {"type": "Point", "coordinates": [85.145, 27.918]}, "properties": {"name": NaN, "flood_prob": 0.0, "risk": "Low"}}, {"type": "Feature", "geometry": {"type": "Point", "coordinates": [85.141, 27.922]}, "properties": {"name": "Shree Panc", "flood_prob": 0.0, "risk": "Low"}}, {"type": "Feature", "geometry": {"type": "Point", "coordinates": [85.158, 27.948]}, "properties": {"name": "Shree Sula", "flood_prob": 0.0, "risk": "Low"}}, {"type": "Feature", "geometry": {"type": "Point", "coordinates": [85.133, 27.905]}, "properties": {"name": "Shr Mahend", "flood_prob": 0.0, "risk": "Low"}}, {"type": "Feature", "geometry": {"type": "Point", "coordinates": [85.161, 27.937]}, "properties": {"name": "Sundarikyu", "flood_prob": 0.0, "risk": "Low"}}, {"type": "Feature", "geometry": {"type": "Point", "coordinates": [85.144, 27.899]}, "properties": {"name": "Shree Unit", "flood_prob": 0.0, "risk": "Low"}}, {"type": "Feature", "geometry": {"type": "Point", "coordinates": [85.171, 27.962]}, "properties": {"name": "Shree Chet", "flood_prob": 0.297, "risk": "Low"}}, {"type": "Feature", "geometry": {"type": "Point", "coordinates": [85.114, 28.009]}, "properties": {"name": "Shree Dike", "flood_prob": 0.0, "risk": "Low"}}, {"type": "Feature", "geometry": {"type": "Point", "coordinates": [85.106, 28.015]}, "properties": {"name": "Shree Sapc", "flood_prob": 0.0, "risk": "Low"}}, {"type": "Feature", "geometry": {"type": "Point", "coordinates": [85.088, 28.029]}, "properties": {"name": "Shree Kany", "flood_prob": 0.0, "risk": "Low"}}, {"type": "Feature", "geometry": {"type": "Point", "coordinates": [85.093, 28.037]}, "properties": {"name": "Shree kali", "flood_prob": 0.0, "risk": "Low"}}, {"type": "Feature", "geometry": {"type": "Point", "coordinates": [85.007, 27.869]}, "properties": {"name": "Shree Namu", "flood_prob": 0.03, "risk": "Low"}}, {"type": "Feature", "geometry": {"type": "Point", "coordinates": [85.001, 27.889]}, "properties": {"name": "Shree Pipa", "flood_prob": 0.03, "risk": "Low"}}, {"type": "Feature", "geometry": {"type": "Point", "coordinates": [85.039, 27.898]}, "properties": {"name": "Shree Jalp", "flood_prob": 0.007, "risk": "Low"}}, {"type": "Feature", "geometry": {"type": "Point", "coordinates": [85.033, 27.918]}, "properties": {"name": "Shree Sara", "flood_prob": 0.02, "risk": "Low"}}, {"type": "Feature", "geometry": {"type": "Point", "coordinates": [85.045, 27.919]}, "properties": {"name": "Shree Gaud", "flood_prob": 0.0, "risk": "Low"}}, {"type": "Feature", "geometry": {"type": "Point", "coordinates": [85.058, 27.915]}, "properties": {"name": "Shree Chak", "flood_prob": 0.0, "risk": "Low"}}, {"type": "Feature", "geometry": {"type": "Point", "coordinates": [85.056, 27.913]}, "properties": {"name": "Shree Bhum", "flood_prob": 0.0, "risk": "Low"}}, {"type": "Feature", "geometry": {"type": "Point", "coordinates": [85.057, 27.898]}, "properties": {"name": "Shree Shan", "flood_prob": 0.0, "risk": "Low"}}, {"type": "Feature", "geometry": {"type": "Point", "coordinates": [85.007, 27.877]}, "properties": {"name": "Shree Hast", "flood_prob": 0.03, "risk": "Low"}}, {"type": "Feature", "geometry": {"type": "Point", "coordinates": [85.021, 27.891]}, "properties": {"name": "Shree Bhan", "flood_prob": 0.03, "risk": "Low"}}, {"type": "Feature", "geometry": {"type": "Point", "coordinates": [85.039, 27.905]}, "properties": {"name": "Shree Dang", "flood_prob": 0.007, "risk": "Low"}}, {"type": "Feature", "geometry": {"type": "Point", "coordinates": [85.04, 27.909]}, "properties": {"name": "Shree Jana", "flood_prob": 0.007, "risk": "Low"}}, {"type": "Feature", "geometry": {"type": "Point", "coordinates": [85.023, 27.909]}, "properties": {"name": "Shree Chan", "flood_prob": 0.02, "risk": "Low"}}, {"type": "Feature", "geometry": {"type": "Point", "coordinates": [85.024, 27.917]}, "properties": {"name": "Shree Panc", "flood_prob": 0.02, "risk": "Low"}}, {"type": "Feature", "geometry": {"type": "Point", "coordinates": [85.0, 27.898]}, "properties": {"name": "Shree Tark", "flood_prob": 0.03, "risk": "Low"}}, {"type": "Feature", "geometry": {"type": "Point", "coordinates": [85.023, 27.902]}, "properties": {"name": "Shree Dhan", "flood_prob": 0.02, "risk": "Low"}}, {"type": "Feature", "geometry": {"type": "Point", "coordinates": [85.006, 27.873]}, "properties": {"name": "Shree Gora", "flood_prob": 0.02, "risk": "Low"}}, {"type": "Feature", "geometry": {"type": "Point", "coordinates": [85.005, 27.853]}, "properties": {"name": "Shree Shah", "flood_prob": 0.03, "risk": "Low"}}, {"type": "Feature", "geometry": {"type": "Point", "coordinates": [85.001, 27.865]}, "properties": {"name": "Shree B.P.", "flood_prob": 0.03, "risk": "Low"}}, {"type": "Feature", "geometry": {"type": "Point", "coordinates": [84.582, 27.766]}, "properties": {"name": "School of ", "flood_prob": 0.01, "risk": "Low"}}, {"type": "Feature", "geometry": {"type": "Point", "coordinates": [84.66, 27.858]}, "properties": {"name": "Shree Jana", "flood_prob": 0.0, "risk": "Low"}}, {"type": "Feature", "geometry": {"type": "Point", "coordinates": [84.561, 27.854]}, "properties": {"name": "\u0924\u094d\u0930\u093f\u0935\u0947\u0923\u0940 \u092c", "flood_prob": 0.0, "risk": "Low"}}, {"type": "Feature", "geometry": {"type": "Point", "coordinates": [84.661, 27.842]}, "properties": {"name": "Shree Rast", "flood_prob": 0.07, "risk": "Low"}}, {"type": "Feature", "geometry": {"type": "Point", "coordinates": [84.562, 27.858]}, "properties": {"name": "Green Fiel", "flood_prob": 0.09, "risk": "Low"}}, {"type": "Feature", "geometry": {"type": "Point", "coordinates": [84.623, 27.871]}, "properties": {"name": "Sarbhashan", "flood_prob": 0.0, "risk": "Low"}}, {"type": "Feature", "geometry": {"type": "Point", "coordinates": [84.641, 27.862]}, "properties": {"name": "Shri Janaj", "flood_prob": 0.0, "risk": "Low"}}, {"type": "Feature", "geometry": {"type": "Point", "coordinates": [84.617, 27.874]}, "properties": {"name": "Greenline ", "flood_prob": 0.0, "risk": "Low"}}, {"type": "Feature", "geometry": {"type": "Point", "coordinates": [84.625, 27.871]}, "properties": {"name": "Kurin Boar", "flood_prob": 0.0, "risk": "Low"}}, {"type": "Feature", "geometry": {"type": "Point", "coordinates": [84.633, 27.872]}, "properties": {"name": "Shri Raina", "flood_prob": 0.0, "risk": "Low"}}, {"type": "Feature", "geometry": {"type": "Point", "coordinates": [84.641, 27.862]}, "properties": {"name": "Shree Jana", "flood_prob": 0.0, "risk": "Low"}}, {"type": "Feature", "geometry": {"type": "Point", "coordinates": [84.633, 27.872]}, "properties": {"name": "Shree Rain", "flood_prob": 0.0, "risk": "Low"}}, {"type": "Feature", "geometry": {"type": "Point", "coordinates": [84.726, 27.916]}, "properties": {"name": "Akala Ni. ", "flood_prob": 0.007, "risk": "Low"}}, {"type": "Feature", "geometry": {"type": "Point", "coordinates": [84.71, 27.927]}, "properties": {"name": "Shree Gaik", "flood_prob": 0.003, "risk": "Low"}}, {"type": "Feature", "geometry": {"type": "Point", "coordinates": [84.711, 27.913]}, "properties": {"name": "Shree Bhai", "flood_prob": 0.003, "risk": "Low"}}, {"type": "Feature", "geometry": {"type": "Point", "coordinates": [84.703, 27.902]}, "properties": {"name": "Shree Batu", "flood_prob": 0.003, "risk": "Low"}}, {"type": "Feature", "geometry": {"type": "Point", "coordinates": [84.724, 27.899]}, "properties": {"name": "Shree Kali", "flood_prob": 0.003, "risk": "Low"}}, {"type": "Feature", "geometry": {"type": "Point", "coordinates": [84.751, 27.852]}, "properties": {"name": "Shree Bhaw", "flood_prob": 0.03, "risk": "Low"}}, {"type": "Feature", "geometry": {"type": "Point", "coordinates": [84.75, 27.853]}, "properties": {"name": "Shree Bhaw", "flood_prob": 0.03, "risk": "Low"}}, {"type": "Feature", "geometry": {"type": "Point", "coordinates": [84.758, 27.829]}, "properties": {"name": "Shree Shak", "flood_prob": 0.047, "risk": "Low"}}, {"type": "Feature", "geometry": {"type": "Point", "coordinates": [84.718, 27.86]}, "properties": {"name": "Shree Aana", "flood_prob": 0.003, "risk": "Low"}}, {"type": "Feature", "geometry": {"type": "Point", "coordinates": [84.714, 27.833]}, "properties": {"name": "Bhairabi P", "flood_prob": 0.007, "risk": "Low"}}, {"type": "Feature", "geometry": {"type": "Point", "coordinates": [84.71, 27.868]}, "properties": {"name": "Shree Deur", "flood_prob": 0.003, "risk": "Low"}}, {"type": "Feature", "geometry": {"type": "Point", "coordinates": [84.677, 27.889]}, "properties": {"name": "Shree Jal ", "flood_prob": 0.0, "risk": "Low"}}, {"type": "Feature", "geometry": {"type": "Point", "coordinates": [84.666, 27.927]}, "properties": {"name": "Shree Hima", "flood_prob": 0.0, "risk": "Low"}}, {"type": "Feature", "geometry": {"type": "Point", "coordinates": [84.67, 27.913]}, "properties": {"name": "Shree Bhag", "flood_prob": 0.0, "risk": "Low"}}, {"type": "Feature", "geometry": {"type": "Point", "coordinates": [84.66, 27.925]}, "properties": {"name": "Shree Mand", "flood_prob": 0.0, "risk": "Low"}}, {"type": "Feature", "geometry": {"type": "Point", "coordinates": [84.719, 27.879]}, "properties": {"name": "Shree Bhag", "flood_prob": 0.003, "risk": "Low"}}, {"type": "Feature", "geometry": {"type": "Point", "coordinates": [84.65, 27.924]}, "properties": {"name": "Shree Chan", "flood_prob": 0.0, "risk": "Low"}}, {"type": "Feature", "geometry": {"type": "Point", "coordinates": [84.691, 27.87]}, "properties": {"name": "Shree Dal ", "flood_prob": 0.003, "risk": "Low"}}, {"type": "Feature", "geometry": {"type": "Point", "coordinates": [84.687, 27.862]}, "properties": {"name": "Shree Pash", "flood_prob": 0.003, "risk": "Low"}}, {"type": "Feature", "geometry": {"type": "Point", "coordinates": [84.708, 27.966]}, "properties": {"name": "Shree Rame", "flood_prob": 0.003, "risk": "Low"}}, {"type": "Feature", "geometry": {"type": "Point", "coordinates": [84.694, 27.972]}, "properties": {"name": "Shree Ramc", "flood_prob": 0.003, "risk": "Low"}}, {"type": "Feature", "geometry": {"type": "Point", "coordinates": [84.59, 27.909]}, "properties": {"name": "Shree Bakr", "flood_prob": 0.0, "risk": "Low"}}, {"type": "Feature", "geometry": {"type": "Point", "coordinates": [84.593, 27.901]}, "properties": {"name": "Shree Chan", "flood_prob": 0.0, "risk": "Low"}}, {"type": "Feature", "geometry": {"type": "Point", "coordinates": [84.589, 27.937]}, "properties": {"name": "Shree Laxm", "flood_prob": 0.0, "risk": "Low"}}, {"type": "Feature", "geometry": {"type": "Point", "coordinates": [84.618, 27.938]}, "properties": {"name": "Shree Rish", "flood_prob": 0.0, "risk": "Low"}}, {"type": "Feature", "geometry": {"type": "Point", "coordinates": [84.676, 27.948]}, "properties": {"name": "Shree Lakh", "flood_prob": 0.0, "risk": "Low"}}, {"type": "Feature", "geometry": {"type": "Point", "coordinates": [84.667, 27.975]}, "properties": {"name": "Shree Ram ", "flood_prob": 0.0, "risk": "Low"}}, {"type": "Feature", "geometry": {"type": "Point", "coordinates": [84.684, 27.968]}, "properties": {"name": "Shree Bhub", "flood_prob": 0.0, "risk": "Low"}}, {"type": "Feature", "geometry": {"type": "Point", "coordinates": [84.622, 27.904]}, "properties": {"name": "Shree Sinj", "flood_prob": 0.0, "risk": "Low"}}, {"type": "Feature", "geometry": {"type": "Point", "coordinates": [84.648, 27.94]}, "properties": {"name": "Shree Durg", "flood_prob": 0.0, "risk": "Low"}}, {"type": "Feature", "geometry": {"type": "Point", "coordinates": [84.677, 27.967]}, "properties": {"name": "Bungkot Ne", "flood_prob": 0.0, "risk": "Low"}}, {"type": "Feature", "geometry": {"type": "Point", "coordinates": [84.675, 27.96]}, "properties": {"name": "shree chan", "flood_prob": 0.0, "risk": "Low"}}, {"type": "Feature", "geometry": {"type": "Point", "coordinates": [84.673, 27.971]}, "properties": {"name": "Shree Shah", "flood_prob": 0.0, "risk": "Low"}}, {"type": "Feature", "geometry": {"type": "Point", "coordinates": [84.573, 27.928]}, "properties": {"name": "Shree Bakr", "flood_prob": 0.0, "risk": "Low"}}, {"type": "Feature", "geometry": {"type": "Point", "coordinates": [84.591, 27.882]}, "properties": {"name": "Shri Shili", "flood_prob": 0.0, "risk": "Low"}}]}